[{"OBJECT_NAME":"OBJECT A","OBJECT_ID":"2023-189A","EPOCH":"2026-03-09T22:59:06.381600","MEAN_MOTION":15.32403275,"ECCENTRICITY":0.00094831,"INCLINATION":97.4458,"RA_OF_ASC_NODE":86.5997,"ARG_OF_PERICENTER":249.5377,"MEAN_ANOMALY":110.4847,"EPHEMERIS_TYPE":0,"CLASSIFICATION_TYPE":"U","NORAD_CAT_ID":58502,"ELEMENT_SET_NO":999,"REV_AT_EPOCH":12601,"BSTAR":0.00019874471,"MEAN_MOTION_DOT":6.146e-5,"MEAN_MOTION_DDOT":0},{"OBJECT_NAME":"STARLINK-32874","OBJECT_ID":"2025-029G","EPOCH":"2026-03-09T18:26:03.318144","MEAN_MOTION":15.30221256,"ECCENTRICITY":0.00010464,"INCLINATION":53.1609,"RA_OF_ASC_NODE":229.6752,"ARG_OF_PERICENTER":77.9449,"MEAN_ANOMALY":282.1669,"EPHEMERIS_TYPE":0,"CLASSIFICATION_TYPE":"U","NORAD_CAT_ID":62954,"ELEMENT_SET_NO":999,"REV_AT_EPOCH":6137,"BSTAR":0.0009175472,"MEAN_MOTION_DOT":0.00026932,"MEAN_MOTION_DDOT":0}]
